{"spkid": "54210293", "covariance": {"labels": ["e", "q", "tp", "node", "peri", "i"], "data": [["9.149309037730762E-14", "-2.297573638373646E-13", "4.786814640426218E-12", "2.043940373129712E-12", "2.062282472903953E-11", "-5.997925168281093E-13"], ["-2.297573638373646E-13", "5.77023261990836E-13", "-1.195680067948878E-11", "-5.070332464271775E-12", "-5.173697866979187E-11", "1.568996762245369E-12"], ["4.786814640426218E-12", "-1.195680067948878E-11", "4.630511124309674E-10", "2.266146492840644E-10", "1.227002306078652E-9", "7.557818165820687E-11"], ["2.043940373129712E-12", "-5.070332464271775E-12", "2.266146492840644E-10", "4.472923031084991E-10", "2.854212786547426E-10", "2.504353223315349E-10"], ["2.062282472903953E-11", "-5.173697866979187E-11", "1.227002306078652E-9", "2.854212786547426E-10", "5.006319162715638E-9", "-1.912143060330074E-10"], ["-5.997925168281093E-13", "1.568996762245369E-12", "7.557818165820687E-11", "2.504353223315349E-10", "-1.912143060330074E-10", "2.587407137388989E-10"]], "elements": [{"title": "eccentricity", "value": ".6771310947738043", "units": null, "sigma": 3.02478247775452e-07, "name": "e", "label": "e"}, {"label": "q", "title": "perihelion distance", "value": ".8133378021348147", "units": "au", "name": "q", "sigma": 7.59620472335255e-07}, {"label": "tp", "sigma": 2.15186224566297e-05, "name": "tp", "units": "TDB", "title": "time of perihelion passage", "value": "2459565.603048430786"}, {"label": "node", "sigma": 2.11492861134483e-05, "name": "om", "units": "deg", "title": "longitude of the ascending node", "value": "8.083153012445539"}, {"sigma": 7.07553472376162e-05, "name": "w", "title": "argument of perihelion", "value": "116.2776031287257", "units": "deg", "label": "peri"}, {"name": "i", "sigma": 1.6085419290118e-05, "title": "inclination", "value": "25.40565641326965", "units": "deg", "label": "i"}], "epoch": "2460187.5"}, "elements": [{"name": "e", "sigma": "3.0233E-7", "units": null, "value": ".6775425179979396", "title": "eccentricity", "label": "e"}, {"label": "a", "sigma": "2.575E-8", "name": "a", "value": "2.518475110571762", "title": "semi-major axis", "units": "au"}, {"sigma": "7.5823E-7", "name": "q", "value": ".8121011426398308", "title": "perihelion distance", "units": "au", "label": "q"}, {"units": "deg", "value": "25.41644899571261", "title": "inclination; angle with respect to x-y ecliptic plane", "name": "i", "sigma": "1.6086E-5", "label": "i"}, {"title": "longitude of the ascending node", "value": "8.049162622308151", "units": "deg", "sigma": "2.1158E-5", "name": "om", "label": "node"}, {"label": "peri", "sigma": "7.0704E-5", "name": "w", "value": "116.3226209412579", "title": "argument of perihelion", "units": "deg"}, {"label": "M", "name": "ma", "sigma": "1.0007E-5", "title": "mean anomaly", "value": "43.10417423390455", "units": "deg"}, {"sigma": "3.8091E-5", "name": "tp", "units": "TDB", "value": "2461025.707920001822", "title": "time of perihelion passage", "label": "tp"}, {"label": "period", "units": "d", "value": "1459.838865207839", "title": "sidereal orbital period", "sigma": "2.2389E-5", "name": "per"}, {"units": "deg/d", "title": "mean motion", "value": ".246602559076783", "sigma": "3.7821E-9", "name": "n", "label": "n"}, {"value": "4.224849078503692", "title": "aphelion distance", "units": "au", "sigma": "4.3197E-8", "name": "ad", "label": "Q"}], "epoch": "2461200.5"}